[
    {
        "Altitude(m)": 624790.8182555937,
        "Argument of Periapsis(deg)": 0.0,
        "Eccentricity": 0.0,
        "Inclination(deg)": 60.0,
        "Latitude(deg)": -59.14718590620392,
        "Longitude(deg)": -148.96554095741,
        "Mean Anomaly(deg)": 278.1818,
        "RAAN(deg)": 25.0,
        "Satellite Name": "Test1 127",
        "Satellite Number": 127,
        "Semi-Major Axis(m)": 6980739.136638005,
        "Time(s)": 0
    },
    {
        "Altitude(m)": 624737.4739556034,
        "Argument of Periapsis(deg)": 0.00010418945913296404,
        "Eccentricity": 0.0,
        "Inclination(deg)": 60.0,
        "Latitude(deg)": -58.994642759064234,
        "Longitude(deg)": -147.84603573100836,
        "Mean Anomaly(deg)": 278.8019061454618,
        "RAAN(deg)": 24.99957995086026,
        "Satellite Name": "Test1 127",
        "Satellite Number": 127,
        "Semi-Major Axis(m)": 6980739.136638005,
        "Time(s)": 10
    },
    {
        "Altitude(m)": 624680.3460565627,
        "Argument of Periapsis(deg)": 0.0002083789182659281,
        "Eccentricity": 0.0,
        "Inclination(deg)": 60.0,
        "Latitude(deg)": -58.83178797312476,
        "Longitude(deg)": -146.73708282935436,
        "Mean Anomaly(deg)": 279.42201229092365,
        "RAAN(deg)": 24.999159901720514,
        "Satellite Name": "Test1 127",
        "Satellite Number": 127,
        "Semi-Major Axis(m)": 6980739.136638005,
        "Time(s)": 20
    },
    {
        "Altitude(m)": 624619.4570235745,
        "Argument of Periapsis(deg)": 0.00031256837739889213,
        "Eccentricity": 0.0,
        "Inclination(deg)": 60.0,
        "Latitude(deg)": -58.65878218441558,
        "Longitude(deg)": -145.63919033633107,
        "Mean Anomaly(deg)": 280.0421184363855,
        "RAAN(deg)": 24.998739852580773,
        "Satellite Name": "Test1 127",
        "Satellite Number": 127,
        "Semi-Major Axis(m)": 6980739.136638005,
        "Time(s)": 30
    },
    {
        "Altitude(m)": 624554.8307988202,
        "Argument of Periapsis(deg)": 0.0004167578365318562,
        "Eccentricity": 0.0,
        "Inclination(deg)": 60.0,
        "Latitude(deg)": -58.47579241361039,
        "Longitude(deg)": -144.55282623252552,
        "Mean Anomaly(deg)": 280.6622245818473,
        "RAAN(deg)": 24.998319803441028,
        "Satellite Name": "Test1 127",
        "Satellite Number": 127,
        "Semi-Major Axis(m)": 6980739.136638005,
        "Time(s)": 40
    },
    {
        "Altitude(m)": 624486.4927914657,
        "Argument of Periapsis(deg)": 0.0005209472956648203,
        "Eccentricity": 0.0,
        "Inclination(deg)": 60.0,
        "Latitude(deg)": -58.2829913634394,
        "Longitude(deg)": -143.4784191579019,
        "Mean Anomaly(deg)": 281.28233072730916,
        "RAAN(deg)": 24.997899754301287,
        "Satellite Name": "Test1 127",
        "Satellite Number": 127,
        "Semi-Major Axis(m)": 6980739.136638005,
        "Time(s)": 50
    },
    {
        "Altitude(m)": 624414.4698669323,
        "Argument of Periapsis(deg)": 0.0006251367547977843,
        "Eccentricity": 0.0,
        "Inclination(deg)": 60.0,
        "Latitude(deg)": -58.08055672206534,
        "Longitude(deg)": -142.41635794606853,
        "Mean Anomaly(deg)": 281.902436872771,
        "RAAN(deg)": 24.997479705161545,
        "Satellite Name": "Test1 127",
        "Satellite Number": 127,
        "Semi-Major Axis(m)": 6980739.136638005,
        "Time(s)": 60
    },
    {
        "Altitude(m)": 624338.7903355743,
        "Argument of Periapsis(deg)": 0.0007293262139307483,
        "Eccentricity": 0.0,
        "Inclination(deg)": 60.0,
        "Latitude(deg)": -57.868670477689065,
        "Longitude(deg)": -141.3669914234863,
        "Mean Anomaly(deg)": 282.5225430182328,
        "RAAN(deg)": 24.997059656021804,
        "Satellite Name": "Test1 127",
        "Satellite Number": 127,
        "Semi-Major Axis(m)": 6980739.136638005,
        "Time(s)": 70
    },
    {
        "Altitude(m)": 624259.4839407174,
        "Argument of Periapsis(deg)": 0.0008335156730637124,
        "Eccentricity": 0.0,
        "Inclination(deg)": 60.0,
        "Latitude(deg)": -57.64751824913032,
        "Longitude(deg)": -140.33062996483667,
        "Mean Anomaly(deg)": 283.1426491636946,
        "RAAN(deg)": 24.99663960688206,
        "Satellite Name": "Test1 127",
        "Satellite Number": 127,
        "Semi-Major Axis(m)": 6980739.136638005,
        "Time(s)": 80
    },
    {
        "Altitude(m)": 624176.5818461061,
        "Argument of Periapsis(deg)": 0.0009377051321966765,
        "Eccentricity": 0.0,
        "Inclination(deg)": 60.0,
        "Latitude(deg)": -57.41728863658368,
        "Longitude(deg)": -139.3075457555992,
        "Mean Anomaly(deg)": 283.76275530915643,
        "RAAN(deg)": 24.996219557742318,
        "Satellite Name": "Test1 127",
        "Satellite Number": 127,
        "Semi-Major Axis(m)": 6980739.136638005,
        "Time(s)": 90
    },
    {
        "Altitude(m)": 624090.1166227263,
        "Argument of Periapsis(deg)": 0.0010418945913296407,
        "Eccentricity": 0.0,
        "Inclination(deg)": 60.0,
        "Latitude(deg)": -57.17817259617779,
        "Longitude(deg)": -138.29797325055208,
        "Mean Anomaly(deg)": 284.3828614546183,
        "RAAN(deg)": 24.995799508602577,
        "Satellite Name": "Test1 127",
        "Satellite Number": 127,
        "Semi-Major Axis(m)": 6980739.136638005,
        "Time(s)": 100
    },
    {
        "Altitude(m)": 624000.1222350475,
        "Argument of Periapsis(deg)": 0.0011460840504626045,
        "Eccentricity": 0.0,
        "Inclination(deg)": 60.0,
        "Latitude(deg)": -56.93036284139667,
        "Longitude(deg)": -137.3021113164609,
        "Mean Anomaly(deg)": 285.0029676000801,
        "RAAN(deg)": 24.99537945946283,
        "Satellite Name": "Test1 127",
        "Satellite Number": 127,
        "Semi-Major Axis(m)": 6980739.136638005,
        "Time(s)": 110
    },
    {
        "Altitude(m)": 623906.6340266508,
        "Argument of Periapsis(deg)": 0.0012502735095955685,
        "Eccentricity": 0.0,
        "Inclination(deg)": 60.0,
        "Latitude(deg)": -56.67405327386947,
        "Longitude(deg)": -136.32012400862322,
        "Mean Anomaly(deg)": 285.623073745542,
        "RAAN(deg)": 24.994959410323087,
        "Satellite Name": "Test1 127",
        "Satellite Number": 127,
        "Semi-Major Axis(m)": 6980739.136638005,
        "Time(s)": 120
    },
    {
        "Altitude(m)": 623809.6887052798,
        "Argument of Periapsis(deg)": 0.0013544629687285324,
        "Eccentricity": 0.0,
        "Inclination(deg)": 60.0,
        "Latitude(deg)": -56.40943844548849,
        "Longitude(deg)": -135.3521414700265,
        "Mean Anomaly(deg)": 286.24317989100376,
        "RAAN(deg)": 24.994539361183342,
        "Satellite Name": "Test1 127",
        "Satellite Number": 127,
        "Semi-Major Axis(m)": 6980739.136638005,
        "Time(s)": 130
    },
    {
        "Altitude(m)": 623709.3243272958,
        "Argument of Periapsis(deg)": 0.0014586524278614966,
        "Eccentricity": 0.0,
        "Inclination(deg)": 60.0,
        "Latitude(deg)": -56.13671305330188,
        "Longitude(deg)": -134.39826244267587,
        "Mean Anomaly(deg)": 286.86328603646564,
        "RAAN(deg)": 24.9941193120436,
        "Satellite Name": "Test1 127",
        "Satellite Number": 127,
        "Semi-Major Axis(m)": 6980739.136638005,
        "Time(s)": 140
    },
    {
        "Altitude(m)": 623605.580281562,
        "Argument of Periapsis(deg)": 0.0015628418869944607,
        "Eccentricity": 0.0,
        "Inclination(deg)": 60.0,
        "Latitude(deg)": -55.856071468154475,
        "Longitude(deg)": -133.45855534313955,
        "Mean Anomaly(deg)": 287.48339218192746,
        "RAAN(deg)": 24.99369926290386,
        "Satellite Name": "Test1 127",
        "Satellite Number": 127,
        "Semi-Major Axis(m)": 6980739.136638005,
        "Time(s)": 150
    },
    {
        "Altitude(m)": 623498.4972727506,
        "Argument of Periapsis(deg)": 0.0016670313461274247,
        "Eccentricity": 0.0,
        "Inclination(deg)": 60.0,
        "Latitude(deg)": -55.56770729760392,
        "Longitude(deg)": -132.53305939432784,
        "Mean Anomaly(deg)": 288.1034983273893,
        "RAAN(deg)": 24.99327921376412,
        "Satellite Name": "Test1 127",
        "Satellite Number": 127,
        "Semi-Major Axis(m)": 6980739.136638005,
        "Time(s)": 160
    },
    {
        "Altitude(m)": 623388.1173040761,
        "Argument of Periapsis(deg)": 0.0017712208052603888,
        "Eccentricity": 0.0,
        "Inclination(deg)": 60.0,
        "Latitude(deg)": -55.271812983238874,
        "Longitude(deg)": -131.62178730704534,
        "Mean Anomaly(deg)": 288.7236044728511,
        "RAAN(deg)": 24.992859164624374,
        "Satellite Name": "Test1 127",
        "Satellite Number": 127,
        "Semi-Major Axis(m)": 6980739.136638005,
        "Time(s)": 170
    },
    {
        "Altitude(m)": 623274.4836594816,
        "Argument of Periapsis(deg)": 0.001875410264393353,
        "Eccentricity": 0.0,
        "Inclination(deg)": 60.0,
        "Latitude(deg)": -54.968579432178096,
        "Longitude(deg)": -130.72472646787025,
        "Mean Anomaly(deg)": 289.3437106183129,
        "RAAN(deg)": 24.992439115484633,
        "Satellite Name": "Test1 127",
        "Satellite Number": 127,
        "Semi-Major Axis(m)": 6980739.136638005,
        "Time(s)": 180
    },
    {
        "Altitude(m)": 623157.6408852575,
        "Argument of Periapsis(deg)": 0.0019795997235263173,
        "Eccentricity": 0.0,
        "Inclination(deg)": 60.0,
        "Latitude(deg)": -54.65819568221154,
        "Longitude(deg)": -129.841840130266,
        "Mean Anomaly(deg)": 289.96381676377473,
        "RAAN(deg)": 24.99201906634489,
        "Satellite Name": "Test1 127",
        "Satellite Number": 127,
        "Semi-Major Axis(m)": 6980739.136638005,
        "Time(s)": 190
    }
]